{
    "satellites": [
        {
            "name": "starlink327",
            "title": "Starlink-327 (G11-30) (new)",
            "tle": [
                "1 70989C 25271AC  25331.10465278 -.01263000  00000+0 -20213-2 0  3310",
                "2 70989  53.1585 265.2912 0000303 118.0219   7.2633 16.04177017    13"
            ],
            "stdMag": 5,
            "noradId": "70989",
            "tleUrl": "http://celestrak.org/NORAD/elements/supplemental/sup-gp.php?FILE=starlink&FORMAT=tle",
            "launchDate": "2025-11-23T08:48:00.000Z",
            "active": true,
            "batch": [
                {
                    "noradId": "70989",
                    "tle": [
                        "1 70989C 25271AC  25331.10465278 -.01263000  00000+0 -20213-2 0  3310",
                        "2 70989  53.1585 265.2912 0000303 118.0219   7.2633 16.04177017    13"
                    ]
                },
                {
                    "noradId": "70990",
                    "tle": [
                        "1 70990C 25271AD  25331.10187500 -.01271900  00000+0 -20225-2 0  3312",
                        "2 70990  53.1583 265.3041 0000665 113.9942 355.8218 16.04293007    14"
                    ]
                },
                {
                    "noradId": "70988",
                    "tle": [
                        "1 70988C 25271AB  25331.09631944 -.01274100  00000+0 -20124-2 0  3316",
                        "2 70988  53.1583 265.3319 0000678 107.9137 330.3897 16.04407557    10"
                    ]
                },
                {
                    "noradId": "70987",
                    "tle": [
                        "1 70987C 25271AA  25331.10395833 -.01265900  00000+0 -19892-2 0  3319",
                        "2 70987  53.1581 265.2906 0000353 117.8630   5.2113 16.04486047    16"
                    ]
                },
                {
                    "noradId": "70986",
                    "tle": [
                        "1 70986C 25271Z   25331.09909722 -.01242600  00000+0 -20300-2 0  3312",
                        "2 70986  53.1584 265.3261 0000270 118.1800 332.0639 16.03809323    13"
                    ]
                },
                {
                    "noradId": "70985",
                    "tle": [
                        "1 70985C 25271Y   25331.10048611 -.01250600  00000+0 -20534-2 0  3312",
                        "2 70985  53.1582 265.3199 0000669 113.6880 343.9979 16.03732101    17"
                    ]
                },
                {
                    "noradId": "70984",
                    "tle": [
                        "1 70984C 25271X   25331.10256944 -.01250000  00000+0 -20653-2 0  3317",
                        "2 70984  53.1583 265.3103 0000652 108.8552   0.2671 16.03624945    14"
                    ]
                },
                {
                    "noradId": "70983",
                    "tle": [
                        "1 70983C 25271W   25331.09701389 -.01243600  00000+0 -20654-2 0  3311",
                        "2 70983  53.1583 265.3405 0000560 105.1032 331.2425 16.03531473    16"
                    ]
                },
                {
                    "noradId": "70982",
                    "tle": [
                        "1 70982C 25271V   25331.09701389 -.01240600  00000+0 -20745-2 0  3318",
                        "2 70982  53.1583 265.3417 0000557 107.7875 327.9307 16.03411905    15"
                    ]
                },
                {
                    "noradId": "70981",
                    "tle": [
                        "1 70981C 25271U   25331.09631944 -.01237100  00000+0 -20788-2 0  3314",
                        "2 70981  53.1582 265.3467 0000639  62.9658   8.1515 16.03324925    14"
                    ]
                },
                {
                    "noradId": "70980",
                    "tle": [
                        "1 70980C 25271T   25331.10326389 -.01231300  00000+0 -20899-2 0  3318",
                        "2 70980  53.1583 265.3121 0000419  96.5698  13.9641 16.03149464    11"
                    ]
                },
                {
                    "noradId": "70979",
                    "tle": [
                        "1 70979C 25271S   25331.10048611 -.01228300  00000+0 -20952-2 0  3311",
                        "2 70979  53.1584 265.3278 0000400  99.8885 354.0223 16.03062004    16"
                    ]
                },
                {
                    "noradId": "70978",
                    "tle": [
                        "1 70978C 25271R   25331.09701389 -.01222900  00000+0 -20993-2 0  3311",
                        "2 70978  53.1586 265.3471 0000618  63.8824   9.3541 16.02946349    12"
                    ]
                },
                {
                    "noradId": "70977",
                    "tle": [
                        "1 70977C 25271Q   25331.10465278 -.01219500  00000+0 -21103-2 0  3312",
                        "2 70977  53.1586 265.3090 0000665  64.4323  52.2877 16.02807851    14"
                    ]
                },
                {
                    "noradId": "70976",
                    "tle": [
                        "1 70976C 25271P   25331.10048611 -.01217900  00000+0 -21157-2 0  3310",
                        "2 70976  53.1587 265.3316 0000784 112.1211 339.9820 16.02739613    17"
                    ]
                },
                {
                    "noradId": "70975",
                    "tle": [
                        "1 70975C 25271N   25331.10326389 -.01216700  00000+0 -21266-2 0  3318",
                        "2 70975  53.1588 265.3187 0000736  62.1823  45.3566 16.02632767    10"
                    ]
                },
                {
                    "noradId": "70974",
                    "tle": [
                        "1 70974C 25271M   25331.09840278 -.01207100  00000+0 -21237-2 0  3315",
                        "2 70974  53.1589 265.3452 0000873 123.8109 315.0313 16.02510621    10"
                    ]
                },
                {
                    "noradId": "70973",
                    "tle": [
                        "1 70973C 25271L   25331.10048611 -.01199800  00000+0 -21256-2 0  3315",
                        "2 70973  53.1588 265.3355 0000837 121.2746 328.9818 16.02384072    11"
                    ]
                },
                {
                    "noradId": "70972",
                    "tle": [
                        "1 70972C 25271K   25331.10256944 -.01198300  00000+0 -21404-2 0  3313",
                        "2 70972  53.1589 265.3263 0000723  63.7049  37.8989 16.02240642    18"
                    ]
                },
                {
                    "noradId": "70971",
                    "tle": [
                        "1 70971C 25271J   25331.10118056 -.01195600  00000+0 -21516-2 0  3317",
                        "2 70971  53.1590 265.3349 0000393 103.1448 349.7826 16.02110232    15"
                    ]
                },
                {
                    "noradId": "70970",
                    "tle": [
                        "1 70970C 25271H   25331.09701389 -.01188000  00000+0 -21648-2 0  3313",
                        "2 70970  53.1590 265.3590 0000636  61.9492   5.6931 16.01886031    13"
                    ]
                },
                {
                    "noradId": "70969",
                    "tle": [
                        "1 70969C 25271G   25331.10326389 -.01191900  00000+0 -21625-2 0  3314",
                        "2 70969  53.1590 265.3254 0000385  97.5897   6.6934 16.01964798    14"
                    ]
                },
                {
                    "noradId": "70968",
                    "tle": [
                        "1 70968C 25271F   25331.10187500 -.01184300  00000+0 -21703-2 0  3316",
                        "2 70968  53.1590 265.3351 0000732  59.9686  35.1488 16.01783684    19"
                    ]
                },
                {
                    "noradId": "70967",
                    "tle": [
                        "1 70967C 25271E   25331.09770833 -.01122000  00000+0 -15914-2 0  3316",
                        "2 70967  53.1589 265.3266 0000733 110.8710 334.6417 16.06032358    16"
                    ]
                },
                {
                    "noradId": "70966",
                    "tle": [
                        "1 70966C 25271D   25331.10048611 -.01162500  00000+0 -21881-2 0  3318",
                        "2 70966  53.1592 265.3476 0000648  65.0927  19.4850 16.01296759    19"
                    ]
                },
                {
                    "noradId": "70965",
                    "tle": [
                        "1 70965C 25271C   25331.09840278 -.01178500  00000+0 -21758-2 0  3314",
                        "2 70965  53.1591 265.3544 0000705 111.5999 322.8239 16.01649369    14"
                    ]
                },
                {
                    "noradId": "70964",
                    "tle": [
                        "1 70964C 25271B   25331.09979167 -.01204100  00000+0 -17608-2 0  3318",
                        "2 70964  53.1589 265.3182 0000602 111.6256 344.7043 16.05615667    15"
                    ]
                },
                {
                    "noradId": "70963",
                    "tle": [
                        "1 70963C 25271A   25331.10048611 -.01159300  00000+0 -21949-2 0  3314",
                        "2 70963  53.1593 265.3489 0000640  68.8171  15.1571 16.01192684    10"
                    ]
                }
            ]
        }
    ],
    "config": {}
}